STARLINK-32107          
1 59694U 24086N   25314.84630770  .00003254  00000+0  12769-3 0  9994
2 59694  43.0044  11.3173 0001537 262.1070  97.9607 15.27588212 85934
STARLINK-32104          
1 59695U 24086P   25314.84549861  .00003358  00000+0  13153-3 0  9998
2 59695  43.0019   7.7739 0001254 271.7066  88.3642 15.27575106 85976
STARLINK-32094          
1 59696U 24086Q   25314.52323787 -.00001984  00000+0 -62612-4 0  9991
2 59696  42.9965  13.1895 0000407 255.3544 104.7262 15.27572295 85884
STARLINK-32099          
1 59697U 24086R   25314.54878578 -.00000149  00000+0  41399-5 0  9998
2 59697  43.0050  12.5214 0002244 259.8634 100.1965 15.27585299 85899
STARLINK-32096          
1 59698U 24086S   25314.17060630  .00000938  00000+0  43608-4 0  9999
2 59698  43.0040  14.8450 0001201 263.2906  96.7809 15.27580998 85831
STARLINK-32102          
1 59699U 24086T   25314.55521873 -.00000974  00000+0 -25896-4 0  9994
2 59699  43.0020  12.5690 0000646 225.2953 134.7846 15.27574965 85890
STARLINK-32092          
1 59700U 24086U   25314.57320613  .00003578  00000+0  13946-3 0  9991
2 59700  42.9998  12.7067 0000775 277.1814  82.8949 15.27585891 85897
STARLINK-32093          
1 59701U 24086V   25314.43985945  .00001867  00000+0  77314-4 0  9991
2 59701  43.0022  13.4246 0000743 167.5517 192.5353 15.27589580 85877
STARLINK-32087          
1 59702U 24086W   25314.55906861  .00000263  00000+0  19097-4 0  9998
2 59702  43.0012  12.5965 0001111 226.2176 133.8583 15.27573038 85895
STARLINK-32086          
1 59703U 24086X   25314.54108831 -.00000670  00000+0 -14814-4 0  9995
2 59703  43.0033  12.4655 0002008 267.0787  92.9835 15.27583284 85890
STARLINK-32098          
1 59704U 24086Y   25314.18860507 -.00001209  00000+0 -34440-4 0  9997
2 59704  43.0016  14.9779 0001123 273.0782  86.9942 15.27567829 85838
ZHIHUI TIANWANG-1 01A   
1 59705U 24087A   25296.30899392  .00000036  00000+0  00000+0 0  9991
2 59705  53.1222 180.3428 0018390 196.1081 163.9256  2.00556575 10554
ZHIHUI TIANWANG-1 01B   
1 59706U 24087B   25310.76989049  .00000063  00000+0  00000+0 0  9998
2 59706  53.1220 179.7448 0017543 191.7433 168.3160  2.00566965 10498
STARLINK-11107 [DTC]    
1 59708U 24088A   25314.16387499 -.00001338  00000+0 -61774-5 0  9999
2 59708  53.1599 195.1868 0000985  63.5722 296.5397 15.69734641 87482
STARLINK-11088 [DTC]    
1 59709U 24088B   25314.66352892 -.00005469  00000+0 -40345-4 0  9993
2 59709  53.1600 193.3379 0000238  20.3009 339.8018 15.69699964 87572
STARLINK-11092 [DTC]    
1 59710U 24088C   25314.08559636 -.00003651  00000+0 -25266-4 0  9992
2 59710  53.1594 196.1274 0001133 108.1610 251.9532 15.69728657 87486
STARLINK-11082 [DTC]    
1 59711U 24088D   25314.39903496 -.00002403  00000+0 -14981-4 0  9990
2 59711  53.1590 194.5263 0000553  77.1949 282.9130 15.69722033 87534
STARLINK-11108 [DTC]    
1 59712U 24088E   25314.39413713 -.00001704  00000+0 -91986-5 0  9993
2 59712  53.1579 194.4923 0001686  91.4295 268.6916 15.69715565 87530
STARLINK-11100 [DTC]    
1 59713U 24088F   25314.38922673 -.00004194  00000+0 -29746-4 0  9993
2 59713  53.1569 194.4602 0001427  83.7601 276.3579 15.69729741 87534
STARLINK-11094 [DTC]    
1 59714U 24088G   25314.06598388  .00029481  00000+0  24715-3 0  9995
2 59714  53.1579 196.0070 0001366  82.5963 277.5210 15.69727892 87487
STARLINK-11101 [DTC]    
1 59715U 24088H   25314.37450683  .00002053  00000+0  21787-4 0  9998
2 59715  53.1577 194.3606 0000660  58.2231 301.8852 15.69718076 87539
STARLINK-11099 [DTC]    
1 59716U 24088J   25314.37941332 -.00004410  00000+0 -31532-4 0  9995
2 59716  53.1589 194.3924 0000929  70.5747 289.5371 15.69731196 87539
STARLINK-11084 [DTC]    
1 59717U 24088K   25314.68795634  .00029313  00000+0  24721-3 0  9990
2 59717  53.1551 192.7574 0002311  42.6083 317.5114 15.69584881 87581
STARLINK-11103 [DTC]    
1 59718U 24088L   25314.04635032 -.00004678  00000+0 -33741-4 0  9998
2 59718  53.1592 195.8641 0000932  79.8801 280.2323 15.69736125 87480
STARLINK-11096 [DTC]    
1 59719U 24088M   25314.66843195  .00001312  00000+0  15687-4 0  9997
2 59719  53.1577 193.3624 0001031  97.2394 262.8741 15.69712749 87576
STARLINK-11095 [DTC]    
1 59720U 24088N   25314.67814047  .00002177  00000+0  22822-4 0  9993
2 59720  53.1586 192.6917 0000783 144.2367 215.8704 15.69703029 87580
STARLINK-31834          
1 59721U 24088P   25314.77853447 -.00003472  00000+0 -10518-3 0  9991
2 59721  53.1620 332.4304 0001320  99.3962 260.7188 15.30185728 85652
STARLINK-31843          
1 59722U 24088Q   25314.78908459  .00002240  00000+0  87759-4 0  9999
2 59722  53.1611 332.4964 0001214 100.8852 259.2285 15.30193586 85475
STARLINK-31766          
1 59723U 24088R   25314.76798360 -.00000289  00000+0  23567-5 0  9996
2 59723  53.1610 332.3656 0000956 104.1299 255.9808 15.30196174 85476
STARLINK-31836          
1 59724U 24088S   25314.77220533  .00004988  00000+0  18052-3 0  9990
2 59724  53.1613 332.3922 0001204 108.5916 251.5216 15.30178983 85470
STARLINK-31820          
1 59725U 24088T   25314.78170076  .00003428  00000+0  12781-3 0  9999
2 59725  53.1632 332.4509 0001582  76.2177 283.9000 15.30202164 85472
STARLINK-31642          
1 59726U 24088U   25314.78592159  .00002347  00000+0  91366-4 0  9996
2 59726  53.1614 332.4778 0001436  82.4616 277.6548 15.30198279 85474
STARLINK-31827          
1 59727U 24088V   25314.79224965  .00002218  00000+0  86978-4 0  9995
2 59727  53.1607 332.5136 0001381  86.4443 273.6716 15.30209090 85597
SHIYAN-23 (SY-23)       
1 59728U 24089A   25314.75644258  .00000942  00000+0  11204-3 0  9995
2 59728  97.7738 316.1433 0003454 169.4312 190.6977 14.86666610 81380
STARLINK-31472          
1 59730U 24090A   25314.93294864  .00011205  00000+0  42644-3 0  9990
2 59730  42.9992 133.6772 0001117 266.2352  93.8371 15.26764899 85287
STARLINK-31817          
1 59731U 24090B   25314.88593075 -.00000154  00000+0  39858-5 0  9998
2 59731  43.0088 134.1856 0003508 271.9432  88.1018 15.27590944 85276
STARLINK-31841          
1 59732U 24090C   25315.00003472  .00275533  00000+0  12492-2 0  9997
2 59732  42.9835  80.2028 0027170 343.7135 288.9896 15.81828128  5944
STARLINK-31833          
1 59733U 24090D   25314.78728939  .00001046  00000+0  47518-4 0  9999
2 59733  43.0015 135.1556 0001419 269.7403  90.3286 15.27583338 85257
STARLINK-31849          
1 59734U 24090E   25314.90746821 -.00000174  00000+0  32031-5 0  9991
2 59734  42.9976 127.4204 0001414 277.2296  82.8395 15.27577132 85358
STARLINK-31661          
1 59735U 24090F   25314.89589159  .00000466  00000+0  26436-4 0  9993
2 59735  42.9996 127.3320 0000583 255.0844 104.9943 15.27583678 85355
STARLINK-31707          
1 59736U 24090G   25314.76929719  .00001693  00000+0  71014-4 0  9995
2 59736  43.0005 135.0188 0001016 242.1504 117.9245 15.27591508 85258
STARLINK-31821          
1 59737U 24090H   25314.78088290 -.00000952  00000+0 -25078-4 0  9996
2 59737  43.0014 135.1071 0001279 263.1159  96.9547 15.27567524 85253
STARLINK-31819          
1 59738U 24090J   25314.90779412 -.00002074  00000+0 -65864-4 0  9998
2 59738  42.9999 134.3361 0001366 255.1759 104.8941 15.27573386 85273
STARLINK-31726          
1 59739U 24090K   25314.55515587 -.00000001  00000+0  94915-5 0  9998
2 59739  42.9992 135.9982 0000676 258.7124 101.3651 15.27580833 85221
STARLINK-31759          
1 59740U 24090L   25314.92962138  .00000417  00000+0  24666-4 0  9994
2 59740  42.9980 134.5030 0000905 264.0080  96.0668 15.27587021 85274
STARLINK-31818          
1 59741U 24090M   25314.59498849  .00000909  00000+0  42554-4 0  9993
2 59741  43.0037 136.2942 0001159 254.0508 106.0216 15.27583777 85227
STARLINK-31816          
1 59742U 24090N   25314.93603837  .00007689  00000+0  28847-3 0  9997
2 59742  43.0004 134.5318 0001338 271.5489  88.5209 15.27599490 85259
STARLINK-31809          
1 59743U 24090P   25314.89975093  .00002408  00000+0  96950-4 0  9994
2 59743  43.0003 127.3582 0001454 272.0907  87.9778 15.27591809 85353
STARLINK-31779          
1 59744U 24090Q   25314.56286465  .00000224  00000+0  17670-4 0  9993
2 59744  43.0027 136.0575 0001136 268.0085  92.0636 15.27579399 85224
STARLINK-31805          
1 59745U 24090R   25314.87820342  .00000419  00000+0  24779-4 0  9990
2 59745  43.0065 134.1212 0003580 259.3423 100.7025 15.27596536 85274
STARLINK-31681          
1 59746U 24090S   25314.83819995 -.00003903  00000+0 -13216-3 0  9995
2 59746  42.9986 127.7551 0001924 274.3752  85.6879 15.27626613 85347
STARLINK-31636          
1 59747U 24090T   25314.89235998  .00001021  00000+0  46597-4 0  9993
2 59747  43.0021 134.2265 0000844 242.7939 117.2826 15.27588011 85276
STARLINK-31640          
1 59748U 24090U   25314.51675586  .00001305  00000+0  56950-4 0  9993
2 59748  43.0013 136.5589 0001226 264.2300  95.8412 15.27581216 85214
STARLINK-31677          
1 59749U 24090V   25314.92577273  .00001344  00000+0  58356-4 0  9998
2 59749  42.9996 134.4735 0001260 272.5536  87.5171 15.27581039 85262
STARLINK-31783          
1 59750U 24090W   25314.86809523  .00001708  00000+0  71567-4 0  9992
2 59750  43.0014 134.9043 0001028 269.6083  90.4651 15.27583795 85256
STARLINK-31808          
1 59751U 24090X   25314.54745581 -.00000403  00000+0 -51352-5 0  9995
2 59751  43.0028 135.9371 0000879 224.3359 135.7422 15.27569105 85218
STARLINK-31822          
1 59752U 24090Y   25314.89621296  .00001605  00000+0  67799-4 0  9994
2 59752  43.0036 134.2547 0001119 256.7469 103.3257 15.27589749 85262
STARLINK-11118 [DTC]    
1 59754U 24091B   25314.34028420 -.00000004  00000+0  48223-5 0  9992
2 59754  53.1565  74.9466 0001283  92.9809 267.1355 15.69725277 86761
STARLINK-11132 [DTC]    
1 59755U 24091C   25314.33047374 -.00000280  00000+0  25562-5 0  9998
2 59755  53.1603  74.8817 0001519  87.8200 272.2992 15.69720794 86767
